OBJECT_NAME,OBJECT_ID,EPOCH,MEAN_MOTION,ECCENTRICITY,INCLINATION,RA_OF_ASC_NODE,ARG_OF_PERICENTER,MEAN_ANOMALY,EPHEMERIS_TYPE,CLASSIFICATION_TYPE,NORAD_CAT_ID,ELEMENT_SET_NO,REV_AT_EPOCH,BSTAR,MEAN_MOTION_DOT,MEAN_MOTION_DDOT
TJS-7,2021-077A,2026-07-08T13:13:37.994016,1.00270384,.00031345,0.3032,264.2339,113.6677,7.5319,0,U,49115,999,976,0,-.109E-5,0
CHINASAT 9B,2021-080A,2026-07-08T15:01:27.436800,1.00271818,.00021275,0.0153,82.0691,58.9121,112.3826,0,U,49125,999,1786,0,-.298E-5,0
SHIJIAN-21 (SJ-21),2021-094A,2026-07-08T17:50:38.114880,1.00281382,.0051602,5.1608,61.0459,168.7601,92.2548,0,U,49330,999,557,0,-.337E-5,0
SES-17,2021-095A,2026-07-08T13:22:52.109184,1.00268857,.0000903,0.0228,43.9386,70.2570,305.9302,0,U,49332,999,1806,0,-.257E-5,0
SYRACUSE 4A,2021-095B,2026-07-08T13:54:56.534400,1.00270521,.00014589,0.0233,32.9875,70.4253,77.3738,0,U,49333,999,1816,0,0,0
QZS-1R (MICHIBIKI-1R),2021-096A,2026-07-07T14:19:35.596128,1.00248309,.0755406,37.5005,79.2823,272.1222,281.4736,0,U,49336,999,1721,0,-.264E-5,0
ZHONGXING-1D,2021-114A,2026-07-08T11:47:38.638752,1.00272006,.00003898,0.0560,238.8153,32.0867,322.6517,0,U,49505,999,1703,0,-.321E-5,0
STPSAT-6,2021-118A,2026-07-08T12:30:24.495840,1.00270036,.00009036,0.3726,85.1841,245.0563,32.0865,0,U,49817,999,1678,0,-.31E-6,0
EXPRESS AMU-7,2021-123A,2026-07-08T12:40:22.558368,1.00272148,.00002699,0.0300,275.8195,91.9822,253.7736,0,U,50001,999,1675,0,-.228E-5,0
EXPRESS AMU-3,2021-123B,2026-07-07T22:04:57.321696,1.00270723,.0000502,0.0183,333.6203,24.3752,2.0043,0,U,50002,999,724,0,0,0
TIANLIAN 2-02,2021-124A,2026-07-08T12:48:02.945952,1.00271753,.00012037,0.8533,85.8198,162.1416,41.5209,0,U,50005,999,1683,0,0,0
TURKSAT 5B,2021-126A,2026-07-08T13:53:56.629824,1.00270460,.00024246,0.0704,337.5654,17.3563,182.0866,0,U,50212,999,1651,0,.161E-5,0
INMARSAT 6-F1,2021-128A,2026-07-08T14:05:52.139328,1.00269804,.00001079,0.0152,303.7200,276.8825,1.1501,0,U,50319,999,1647,0,-.157E-5,0
SHIYAN-12 01 (SY-12 01),2021-129A,2026-07-08T10:28:47.424000,1.00048003,.0002673,3.7260,79.6260,287.4804,119.1541,0,U,50321,999,1671,0,.161E-5,0
SHIYAN-12 02 (SY-12 02),2021-129B,2026-07-08T18:12:35.021088,1.00480740,.0003064,3.7260,79.6227,67.9841,157.8023,0,U,50322,999,1671,0,-.339E-5,0
TJS-9,2021-135A,2026-07-08T19:29:06.436320,1.00276578,.0002513,0.0322,110.3620,318.7753,287.0891,0,U,50574,999,1664,0,-.284E-5,0
GOES 18,2022-021A,2026-07-07T23:21:43.013664,1.00271486,.0000562,0.0081,185.3359,351.8450,322.1729,0,U,51850,999,680,0,.112E-5,0
ZHONGXING-6D,2022-038A,2026-07-07T20:36:34.064640,1.00269530,.00007343,0.0461,251.4613,283.8928,184.6492,0,U,52255,999,1562,0,-.339E-5,0
NILESAT 301,2022-061A,2026-07-08T13:39:42.994368,1.00272774,.000419,0.0505,335.6943,86.1746,62.6248,0,U,52817,999,1495,0,-.42E-6,0
CMS-02 (GSAT-24),2022-067A,2026-07-08T14:05:37.162752,1.00270851,.00007515,0.0186,56.3795,298.4773,226.0709,0,U,52903,999,1482,0,0,0
MEASAT 3D,2022-067B,2026-07-08T14:08:06.923328,1.00270608,.00005528,0.0582,296.4486,240.1015,53.5094,0,U,52904,999,1486,0,-.227E-5,0
SES-22,2022-071A,2026-07-06T18:15:56.227680,1.00273213,.00010187,0.0347,275.9106,193.2307,310.5886,0,U,52933,999,771,0,.119E-5,0
WFOV (USA 332),2022-073A,2026-07-08T14:15:36.205056,1.00271015,.00014351,3.7624,78.2586,219.5508,321.9582,0,U,52940,999,1458,0,-.35E-5,0
TIANLIAN 2-03,2022-078A,2026-07-08T08:37:02.480736,1.00273822,.00009434,0.7240,77.3899,354.9454,353.8343,0,U,53100,999,1475,0,.87E-6,0
SBIRS GEO-6 (USA 336),2022-092A,2026-07-07T17:49:45.105024,1.00270873,.00018698,3.2245,317.8040,148.9141,225.4355,0,U,53355,999,1444,0,-.275E-5,0
EUTELSAT KONNECT VHTS,2022-110A,2026-07-08T00:01:31.469088,1.00274421,.00031081,0.0574,99.4525,348.8148,200.7878,0,U,53765,999,704,0,.33E-6,0
ZHONGXING-1E,2022-112A,2026-07-08T14:05:14.698752,1.00269610,.00006717,0.0416,123.3809,111.4896,344.3664,0,U,53813,999,1406,0,-.134E-5,0
SES-20,2022-123A,2026-07-08T13:12:30.602016,1.00269683,.00018853,0.0180,65.0487,27.0673,289.4083,0,U,53960,999,1374,0,-.86E-6,0
SES-21,2022-123B,2026-07-07T23:23:20.358816,1.00268312,.00010536,0.0393,30.4325,73.3313,42.0765,0,U,53961,999,742,0,0,0
GALAXY 33 (G-33),2022-128A,2026-07-08T09:45:43.315776,1.00273303,.00017295,0.0108,327.3717,140.6892,191.7431,0,U,54026,999,1395,0,.94E-6,0
GALAXY 34 (G-34),2022-128B,2026-07-08T10:29:38.882976,1.00268417,.00015485,0.0197,24.2371,108.6302,181.9406,0,U,54027,999,1412,0,0,0
ANGOSAT 2,2022-131A,2026-07-08T12:05:41.864064,1.00272604,.00000782,0.0239,119.8340,138.8366,232.2098,0,U,54033,999,1369,0,.15E-5,0
