TJS-7                   
1 49115U 21077A   26189.55113419 -.00000109  00000+0  00000+0 0  9991
2 49115   0.3032 264.2339 0003134 113.6677   7.5319  1.00270384  9763
CHINASAT 9B             
1 49125U 21080A   26189.62601200 -.00000298  00000+0  00000+0 0  9993
2 49125   0.0153  82.0691 0002127  58.9121 112.3826  1.00271818 17869
SHIJIAN-21 (SJ-21)      
1 49330U 21094A   26189.74349670 -.00000337  00000+0  00000+0 0  9993
2 49330   5.1608  61.0459 0051602 168.7601  92.2548  1.00281382  5571
SES-17                  
1 49332U 21095A   26189.55754756 -.00000257  00000+0  00000+0 0  9991
2 49332   0.0228  43.9386 0000903  70.2570 305.9302  1.00268857 18065
SYRACUSE 4A             
1 49333U 21095B   26189.57982100  .00000000  00000+0  00000+0 0  9995
2 49333   0.0233  32.9875 0001458  70.4253  77.3738  1.00270521 18164
QZS-1R (MICHIBIKI-1R)   
1 49336U 21096A   26188.59693977 -.00000264  00000+0  00000+0 0  9994
2 49336  37.5005  79.2823 0755406 272.1222 281.4736  1.00248309 17212
ZHONGXING-1D            
1 49505U 21114A   26189.49141943 -.00000321  00000+0  00000+0 0  9998
2 49505   0.0560 238.8153 0000389  32.0867 322.6517  1.00272006 17037
STPSAT-6                
1 49817U 21118A   26189.52111685 -.00000031  00000+0  00000+0 0  9990
2 49817   0.3726  85.1841 0000903 245.0563  32.0865  1.00270036 16788
EXPRESS AMU-7           
1 50001U 21123A   26189.52803887 -.00000228  00000+0  00000+0 0  9993
2 50001   0.0300 275.8195 0000269  91.9822 253.7736  1.00272148 16753
EXPRESS AMU-3           
1 50002U 21123B   26188.92010789  .00000000  00000+0  00000+0 0  9995
2 50002   0.0183 333.6203 0000502  24.3752   2.0043  1.00270723  7245
TIANLIAN 2-02           
1 50005U 21124A   26189.53336743  .00000000  00000+0  00000+0 0  9998
2 50005   0.8533  85.8198 0001203 162.1416  41.5209  1.00271753 16832
TURKSAT 5B              
1 50212U 21126A   26189.57912766  .00000161  00000+0  00000+0 0  9997
2 50212   0.0704 337.5654 0002424  17.3563 182.0866  1.00270460 16517
INMARSAT 6-F1           
1 50319U 21128A   26189.58740902 -.00000157  00000+0  00000+0 0  9995
2 50319   0.0152 303.7200 0000107 276.8825   1.1501  1.00269804 16475
SHIYAN-12 01 (SY-12 01) 
1 50321U 21129A   26189.43666000  .00000161  00000+0  00000+0 0  9993
2 50321   3.7260  79.6260 0002673 287.4804 119.1541  1.00048003 16715
SHIYAN-12 02 (SY-12 02) 
1 50322U 21129B   26189.75873867 -.00000339  00000+0  00000+0 0  9998
2 50322   3.7260  79.6227 0003064  67.9841 157.8023  1.00480740 16718
TJS-9                   
1 50574U 21135A   26189.81188005 -.00000284  00000+0  00000+0 0  9993
2 50574   0.0322 110.3620 0002513 318.7753 287.0891  1.00276578 16646
GOES 18                 
1 51850U 22021A   26188.97341451  .00000112  00000+0  00000+0 0  9997
2 51850   0.0081 185.3359 0000562 351.8450 322.1729  1.00271486  6802
ZHONGXING-6D            
1 52255U 22038A   26188.85872760 -.00000339  00000+0  00000+0 0  9996
2 52255   0.0461 251.4613 0000734 283.8928 184.6492  1.00269530 15622
NILESAT 301             
1 52817U 22061A   26189.56924762 -.00000042  00000+0  00000+0 0  9996
2 52817   0.0505 335.6943 0004190  86.1746  62.6248  1.00272774 14951
CMS-02 (GSAT-24)        
1 52903U 22067A   26189.58723568  .00000000  00000+0  00000+0 0  9994
2 52903   0.0186  56.3795 0000751 298.4773 226.0709  1.00270851 14829
MEASAT 3D               
1 52904U 22067B   26189.58896902 -.00000227  00000+0  00000+0 0  9990
2 52904   0.0582 296.4486 0000552 240.1015  53.5094  1.00270608 14860
SES-22                  
1 52933U 22071A   26187.76106745  .00000119  00000+0  00000+0 0  9993
2 52933   0.0347 275.9106 0001018 193.2307 310.5886  1.00273213  7718
WFOV (USA 332)          
1 52940U 22073A   26189.59416904 -.00000350  00000+0  00000+0 0  9995
2 52940   3.7624  78.2586 0001435 219.5508 321.9582  1.00271015 14588
TIANLIAN 2-03           
1 53100U 22078A   26189.35905649  .00000087  00000+0  00000+0 0  9998
2 53100   0.7240  77.3899 0000943 354.9454 353.8343  1.00273822 14758
SBIRS GEO-6 (USA 336)   
1 53355U 22092A   26188.74288316 -.00000275  00000+0  00000+0 0  9993
2 53355   3.2245 317.8040 0001869 148.9141 225.4355  1.00270873 14441
EUTELSAT KONNECT VHTS   
1 53765U 22110A   26189.00105867  .00000033  00000+0  00000+0 0  9999
2 53765   0.0574  99.4525 0003108 348.8148 200.7878  1.00274421  7040
ZHONGXING-1E            
1 53813U 22112A   26189.58697568 -.00000134  00000+0  00000+0 0  9995
2 53813   0.0416 123.3809 0000671 111.4896 344.3664  1.00269610 14069
SES-20                  
1 53960U 22123A   26189.55035419 -.00000086  00000+0  00000+0 0  9994
2 53960   0.0180  65.0487 0001885  27.0673 289.4083  1.00269683 13745
SES-21                  
1 53961U 22123B   26188.97454119  .00000000  00000+0  00000+0 0  9997
2 53961   0.0393  30.4325 0001053  73.3313  42.0765  1.00268312  7427
GALAXY 33 (G-33)        
1 54026U 22128A   26189.40675134  .00000094  00000+0  00000+0 0  9999
2 54026   0.0108 327.3717 0001729 140.6892 191.7431  1.00273303 13950
GALAXY 34 (G-34)        
1 54027U 22128B   26189.43725559  .00000000  00000+0  00000+0 0  9997
2 54027   0.0197  24.2371 0001548 108.6302 181.9406  1.00268417 14120
ANGOSAT 2               
1 54033U 22131A   26189.50395676  .00000150  00000+0  00000+0 0  9995
2 54033   0.0239 119.8340 0000078 138.8366 232.2098  1.00272604 13694
